ORBCOMM FM06            
1 25118U 97084G   26165.47165176  .00001073  00000+0  32801-3 0  9999
2 25118  45.0142  65.7847 0001423 323.1014 206.6105 14.47556677493992
ORBCOMM FM04            
1 25159U 98007C   26165.46815362  .00000742  00000+0  29963-3 0  9995
2 25159 107.9627 163.8231 0041276 329.4564  30.4174 14.35736739476209
ORBCOMM FM19            
1 25415U 98046C   26164.97943182  .00000656  00000+0  25400-3 0  9996
2 25415  44.9938 258.8098 0004526 268.8726 260.9102 14.39490987456315
ORBCOMM FM20            
1 25416U 98046D   26163.98366676  .00000543  00000+0  22434-3 0  9993
2 25416  44.9943 271.4189 0002054 236.4114 123.6538 14.38061574456188
ORBCOMM FM27            
1 25481U 98053G   26165.20252670  .00000795  00000+0  30012-3 0  9998
2 25481  45.0066 349.5299 0000717 180.2182 179.8666 14.39136300449809
ORBCOMM FM32            
1 25982U 99065C   26165.30124513  .00000418  00000+0  18690-3 0  9993
2 25982  45.0137 186.9003 0004640  19.5494 340.5532 14.37127226386678
ORBCOMM FM109           
1 40086U 14040A   26165.01636217  .00000400  00000+0  12079-3 0  9998
2 40086  47.0029 106.4778 0001856 239.1826 120.8878 14.58841914633883
ORBCOMM FM114           
1 41179U 15081A   26165.30755389  .00000412  00000+0  12336-3 0  9991
2 41179  47.0061  15.6190 0002302 196.7590 163.3220 14.58855827557331
ORBCOMM FM110           
1 41182U 15081D   26165.29599256  .00000633  00000+0  17014-3 0  9995
2 41182  47.0033  15.1133 0002589  58.4001 301.7137 14.58876713557202
ORBCOMM FM118           
1 41183U 15081E   26165.26175019  .00002411  00000+0  54598-3 0  9994
2 41183  47.0044  15.6060 0002907  13.2035 346.8927 14.58874403557301
ORBCOMM FM112           
1 41184U 15081F   26165.06091727  .00000570  00000+0  15667-3 0  9994
2 41184  46.9998 285.0310 0003553 204.6631 155.4085 14.58900185558492
ORBCOMM FM113           
1 41185U 15081G   26163.05131900  .00000335  00000+0  10705-3 0  9997
2 41185  47.0017 294.9070 0001998 204.7602 155.3188 14.58853293558185
ORBCOMM FM108           
1 41187U 15081J   26165.34229735  .00000311  00000+0  10198-3 0  9997
2 41187  47.0059 195.6493 0002792 212.3732 147.6983 14.58867426559665
ORBCOMM FM117           
1 41188U 15081K   26165.37628769  .00000299  00000+0  99491-4 0  9990
2 41188  46.9993 194.1217 0003348 213.2628 146.8048 14.58863556559710
ORBCOMM FM116           
1 41189U 15081L   26165.01434114  .00000596  00000+0  16223-3 0  9992
2 41189  47.0030 285.6241 0000716  38.4671 321.6265 14.58879012558479
