OBJECT_NAME,OBJECT_ID,EPOCH,MEAN_MOTION,ECCENTRICITY,INCLINATION,RA_OF_ASC_NODE,ARG_OF_PERICENTER,MEAN_ANOMALY,EPHEMERIS_TYPE,CLASSIFICATION_TYPE,NORAD_CAT_ID,ELEMENT_SET_NO,REV_AT_EPOCH,BSTAR,MEAN_MOTION_DOT,MEAN_MOTION_DDOT
ORBCOMM FM06,1997-084G,2026-06-14T11:19:10.712064,14.47556677,.0001423,45.0142,65.7847,323.1014,206.6105,0,U,25118,999,49399,.32801E-3,.1073E-4,0
ORBCOMM FM04,1998-007C,2026-06-14T11:14:08.472768,14.35736739,.0041276,107.9627,163.8231,329.4564,30.4174,0,U,25159,999,47620,.29963E-3,.742E-5,0
ORBCOMM FM19,1998-046C,2026-06-13T23:30:22.909248,14.39490987,.00045268,44.9938,258.8098,268.8726,260.9102,0,U,25415,999,45631,.25400492E-3,.656E-5,0
ORBCOMM FM20,1998-046D,2026-06-12T23:36:28.808064,14.38061574,.00020546,44.9943,271.4189,236.4114,123.6538,0,U,25416,999,45618,.22433606E-3,.543E-5,0
ORBCOMM FM27,1998-053G,2026-06-14T04:51:38.306880,14.39136300,.00007176,45.0066,349.5299,180.2182,179.8666,0,U,25481,999,44980,.30012322E-3,.795E-5,0
ORBCOMM FM32,1999-065C,2026-06-14T07:13:47.579232,14.37127226,.000464,45.0137,186.9003,19.5494,340.5532,0,U,25982,999,38667,.1869E-3,.418E-5,0
ORBCOMM FM109,2014-040A,2026-06-14T00:23:33.691488,14.58841914,.00018561,47.0029,106.4778,239.1826,120.8878,0,U,40086,999,63388,.12078627E-3,.4E-5,0
ORBCOMM FM114,2015-081A,2026-06-14T07:22:52.656096,14.58855827,.0002302,47.0061,15.6190,196.7590,163.3220,0,U,41179,999,55733,.12336E-3,.412E-5,0
ORBCOMM FM110,2015-081D,2026-06-14T07:06:13.757184,14.58876713,.0002589,47.0033,15.1133,58.4001,301.7137,0,U,41182,999,55720,.17014E-3,.633E-5,0
ORBCOMM FM118,2015-081E,2026-06-14T06:16:55.216416,14.58874403,.0002907,47.0044,15.6060,13.2035,346.8927,0,U,41183,999,55730,.54598E-3,.2411E-4,0
ORBCOMM FM112,2015-081F,2026-06-14T01:27:43.252128,14.58900185,.00035535,46.9998,285.0310,204.6631,155.4085,0,U,41184,999,55849,.15666622E-3,.57E-5,0
ORBCOMM FM113,2015-081G,2026-06-12T01:13:53.961600,14.58853293,.0001998,47.0017,294.9070,204.7602,155.3188,0,U,41185,999,55818,.10704795E-3,.335E-5,0
ORBCOMM FM108,2015-081J,2026-06-14T08:12:54.491040,14.58867426,.0002792,47.0059,195.6493,212.3732,147.6983,0,U,41187,999,55966,.10198E-3,.311E-5,0
ORBCOMM FM117,2015-081K,2026-06-14T09:01:51.256416,14.58863556,.0003348,46.9993,194.1217,213.2628,146.8048,0,U,41188,999,55971,.99491E-4,.299E-5,0
ORBCOMM FM116,2015-081L,2026-06-14T00:20:39.074496,14.58879012,.00007162,47.0030,285.6241,38.4671,321.6265,0,U,41189,999,55847,.16222606E-3,.596E-5,0
